INTELSAT 23 (IS-23)     
1 38867U 12057A   26197.82972950 -.00000295  00000+0  00000+0 0  9999
2 38867   0.0191 314.3762 0000709 300.0919 285.8764  1.00263219 50255
BEIDOU-2 G6             
1 38953U 12059A   26197.78548563 -.00000188  00000+0  00000+0 0  9992
2 38953   4.4942  73.1994 0008744 327.1899 260.9917  1.00273423 50201
LUCH-5B                 
1 38977U 12061A   26197.83703071 -.00000151  00000+0  00000+0 0  9994
2 38977  10.5464  49.5833 0003896 147.3803  22.7470  1.00270341 49902
YAMAL 300K              
1 38978U 12061B   26197.80515906  .00000000  00000+0  00000+0 0  9992
2 38978   0.0158  65.0881 0000163 190.5986 151.7571  1.00272636 49925
STAR ONE C3             
1 38991U 12062A   26197.82535249 -.00000260  00000+0  00000+0 0  9991
2 38991   0.0189  41.3702 0002184  81.6856  33.7233  1.00273012 50064
EUTELSAT 21B            
1 38992U 12062B   26197.82336531  .00000119  00000+0  00000+0 0  9997
2 38992   0.0681  16.5316 0003241 106.5443 129.5399  1.00271042 50126
ECHOSTAR 16             
1 39008U 12065A   26197.82799617 -.00000292  00000+0  00000+0 0  9990
2 39008   0.0174  56.5896 0002147  57.1433  57.4943  1.00270607 49941
ZHONGXING-12            
1 39017U 12067A   26197.85750503 -.00000217  00000+0  00000+0 0  9993
2 39017   0.0380  94.4144 0002588  20.2890 216.1755  1.00271259 49808
EUTELSAT 70B            
1 39020U 12069A   26197.85412501 -.00000054  00000+0  00000+0 0  9991
2 39020   0.0610   4.4501 0003623 110.6454 197.5608  1.00271528 49805
YAMAL 402               
1 39022U 12070A   26197.85109167  .00000075  00000+0  00000+0 0  9998
2 39022   1.3390  83.7884 0003633  27.6283 184.5398  1.00272137 49694
SKYNET 5D               
1 39034U 12075A   26197.81017090  .00000089  00000+0  00000+0 0  9990
2 39034   0.0679   1.5949 0003462 122.9352 154.5049  1.00270948 49451
MEXSAT 3                
1 39035U 12075B   26197.60365663  .00000000  00000+0  00000+0 0  9993
2 39035   0.0216  64.9133 0001111  43.9467 288.1083  1.00268938  7345
TDRS 11                 
1 39070U 13004A   26197.82948515  .00000070  00000+0  00000+0 0  9999
2 39070   3.5639  31.7192 0004437  32.3496 355.1028  1.00280001 46999
AMAZONAS 3              
1 39078U 13006A   26197.75687853 -.00000293  00000+0  00000+0 0  9994
2 39078   0.0330 225.5199 0003341 286.4912 354.0459  1.00271842 45218
AZERSPACE 1             
1 39079U 13006B   26197.81572586  .00000123  00000+0  00000+0 0  9999
2 39079   0.0176  39.1126 0001853 110.7116 124.4497  1.00271163 49106
SBIRS GEO-2 (USA 241)   
1 39120U 13011A   26197.54518394 -.00000299  00000+0  00000+0 0  9994
2 39120   4.5508  52.5047 0001990  57.4342 330.9041  1.00271538 48836
EUTELSAT 117 WEST A     
1 39122U 13012A   26197.60313663 -.00000023  00000+0  00000+0 0  9991
2 39122   0.0473 272.0974 0002709 202.9403 279.7201  1.00270382 48724
ANIK G1                 
1 39127U 13014A   26197.60512999 -.00000084  00000+0  00000+0 0  9998
2 39127   0.0452 234.0475 0001725 251.4195 279.5042  1.00271573 48548
ZHONGXING-11            
1 39157U 13020A   26197.85958505 -.00000300  00000+0  00000+0 0  9993
2 39157   0.0543 275.7659 0001923 168.8691 257.3721  1.00269024 48197
EUTELSAT 7B             
1 39163U 13022A   26197.82892022  .00000037  00000+0  00000+0 0  9996
2 39163   0.0684 341.2076 0003278  65.6974 193.1573  1.00269840 48249
WGS F5 (USA 243)        
1 39168U 13024A   26197.54466391  .00000000  00000+0  00000+0 0  9998
2 39168   0.0226  66.5985 0000188 212.3590 159.0053  1.00267560 47468
SES-6                   
1 39172U 13026A   26197.83215617 -.00000272  00000+0  00000+0 0  9992
2 39172   0.0203 347.2506 0002595 109.0776  97.4059  1.00272535 48020
IRNSS-1A                
1 39199U 13034A   26191.72043649  .00000047  00000+0  00000+0 0  9995
2 39199  35.7704  63.5328 0017567 183.4462 356.2994  1.00281941 47601
MUOS-2                  
1 39206U 13036A   26197.80299237 -.00000025  00000+0  00000+0 0  9994
2 39206   5.0524  45.5539 0052823 176.3735 173.7371  1.00272666 47483
ALPHASAT                
1 39215U 13038A   26197.81780765  .00000123  00000+0  00000+0 0  9996
2 39215   2.9997   1.1562 0002212 136.4107 116.3504  1.00270499 44316
INSAT-3D                
1 39216U 13038B   26197.43814667 -.00000351  00000+0  00000+0 0  9998
2 39216   1.9997  82.1690 0000536  76.4436  62.8721  1.00268001 47373
WGS F6 (USA 244)        
1 39222U 13041A   26197.74214514  .00000078  00000+0  00000+0 0  9993
2 39222   0.0184  43.3906 0000253  65.4801 317.6743  1.00271785 46352
ES'HAIL 1               
1 39233U 13044A   26197.81780765  .00000133  00000+0  00000+0 0  9994
2 39233   0.0486 350.2972 0002221 116.7642 147.4976  1.00268858 46929
GSAT-7                  
1 39234U 13044B   26197.85481836 -.00000087  00000+0  00000+0 0  9995
2 39234   0.1553  89.5042 0003153 176.1906  50.6693  1.00271535 45559
AMOS-4                  
1 39237U 13045A   26197.85308500 -.00000003  00000+0  00000+0 0  9993
2 39237   0.0220 250.5468 0002132 194.9994 221.2373  1.00270960 47256
AEHF-3 (USA 246)        
1 39256U 13050A   26197.59652198  .00000016  00000+0  00000+0 0  9999
2 39256   5.3638  66.9127 0088523 187.6931 130.2889  1.00271390 45940
ASTRA 2E                
1 39285U 13056A   26197.81780765  .00000140  00000+0  00000+0 0  9992
2 39285   0.0739 315.4916 0002644 154.6108 147.4182  1.00269758 46711
