OBJECT_NAME,OBJECT_ID,EPOCH,MEAN_MOTION,ECCENTRICITY,INCLINATION,RA_OF_ASC_NODE,ARG_OF_PERICENTER,MEAN_ANOMALY,EPHEMERIS_TYPE,CLASSIFICATION_TYPE,NORAD_CAT_ID,ELEMENT_SET_NO,REV_AT_EPOCH,BSTAR,MEAN_MOTION_DOT,MEAN_MOTION_DDOT
INTELSAT 23 (IS-23),2012-057A,2026-07-16T19:54:48.628800,1.00263219,.0000709,0.0191,314.3762,300.0919,285.8764,0,U,38867,999,5025,0,-.295E-5,0
BEIDOU-2 G6,2012-059A,2026-07-16T18:51:05.958432,1.00273423,.0008744,4.4942,73.1994,327.1899,260.9917,0,U,38953,999,5020,0,-.188E-5,0
LUCH-5B,2012-061A,2026-07-16T20:05:19.453344,1.00270341,.0003896,10.5464,49.5833,147.3803,22.7470,0,U,38977,999,4990,0,-.151E-5,0
YAMAL 300K,2012-061B,2026-07-16T19:19:25.742784,1.00272636,.0000163,0.0158,65.0881,190.5986,151.7571,0,U,38978,999,4992,0,0,0
STAR ONE C3,2012-062A,2026-07-16T19:48:30.455136,1.00273012,.0002184,0.0189,41.3702,81.6856,33.7233,0,U,38991,999,5006,0,-.26E-5,0
EUTELSAT 21B,2012-062B,2026-07-16T19:45:38.762784,1.00271042,.0003241,0.0681,16.5316,106.5443,129.5399,0,U,38992,999,5012,0,.119E-5,0
ECHOSTAR 16,2012-065A,2026-07-16T19:52:18.869088,1.00270607,.0002147,0.0174,56.5896,57.1433,57.4943,0,U,39008,999,4994,0,-.292E-5,0
ZHONGXING-12,2012-067A,2026-07-16T20:34:48.434592,1.00271259,.0002588,0.0380,94.4144,20.2890,216.1755,0,U,39017,999,4980,0,-.217E-5,0
EUTELSAT 70B,2012-069A,2026-07-16T20:29:56.400864,1.00271528,.0003623,0.0610,4.4501,110.6454,197.5608,0,U,39020,999,4980,0,-.54E-6,0
YAMAL 402,2012-070A,2026-07-16T20:25:34.320288,1.00272137,.0003633,1.3390,83.7884,27.6283,184.5398,0,U,39022,999,4969,0,.75E-6,0
SKYNET 5D,2012-075A,2026-07-16T19:26:38.765760,1.00270948,.0003462,0.0679,1.5949,122.9352,154.5049,0,U,39034,999,4945,0,.89E-6,0
MEXSAT 3,2012-075B,2026-07-16T14:29:15.932832,1.00268938,.0001111,0.0216,64.9133,43.9467,288.1083,0,U,39035,999,734,0,0,0
TDRS 11,2013-004A,2026-07-16T19:54:27.516960,1.00280001,.0004437,3.5639,31.7192,32.3496,355.1028,0,U,39070,999,4699,0,.7E-6,0
AMAZONAS 3,2013-006A,2026-07-16T18:09:54.304992,1.00271842,.0003341,0.0330,225.5199,286.4912,354.0459,0,U,39078,999,4521,0,-.293E-5,0
AZERSPACE 1,2013-006B,2026-07-16T19:34:38.714304,1.00271163,.0001853,0.0176,39.1126,110.7116,124.4497,0,U,39079,999,4910,0,.123E-5,0
SBIRS GEO-2 (USA 241),2013-011A,2026-07-16T13:05:03.892416,1.00271538,.000199,4.5508,52.5047,57.4342,330.9041,0,U,39120,999,4883,0,-.299E-5,0
EUTELSAT 117 WEST A,2013-012A,2026-07-16T14:28:31.004832,1.00270382,.0002709,0.0473,272.0974,202.9403,279.7201,0,U,39122,999,4872,0,-.23E-6,0
ANIK G1,2013-014A,2026-07-16T14:31:23.231136,1.00271573,.0001725,0.0452,234.0475,251.4195,279.5042,0,U,39127,999,4854,0,-.84E-6,0
ZHONGXING-11,2013-020A,2026-07-16T20:37:48.148320,1.00269024,.0001923,0.0543,275.7659,168.8691,257.3721,0,U,39157,999,4819,0,-.3E-5,0
EUTELSAT 7B,2013-022A,2026-07-16T19:53:38.707008,1.00269840,.0003278,0.0684,341.2076,65.6974,193.1573,0,U,39163,999,4824,0,.37E-6,0
WGS F5 (USA 243),2013-024A,2026-07-16T13:04:18.961824,1.00267560,.0000188,0.0226,66.5985,212.3590,159.0053,0,U,39168,999,4746,0,0,0
SES-6,2013-026A,2026-07-16T19:58:18.293088,1.00272535,.0002595,0.0203,347.2506,109.0776,97.4059,0,U,39172,999,4802,0,-.272E-5,0
IRNSS-1A,2013-034A,2026-07-10T17:17:25.712736,1.00281941,.0017567,35.7704,63.5328,183.4462,356.2994,0,U,39199,999,4760,0,.47E-6,0
MUOS-2,2013-036A,2026-07-16T19:16:18.540768,1.00272666,.0052823,5.0524,45.5539,176.3735,173.7371,0,U,39206,999,4748,0,-.25E-6,0
ALPHASAT,2013-038A,2026-07-16T19:37:38.580960,1.00270499,.0002212,2.9997,1.1562,136.4107,116.3504,0,U,39215,999,4431,0,.123E-5,0
INSAT-3D,2013-038B,2026-07-16T10:30:55.872288,1.00268001,.0000536,1.9997,82.1690,76.4436,62.8721,0,U,39216,999,4737,0,-.351E-5,0
WGS F6 (USA 244),2013-041A,2026-07-16T17:48:41.340096,1.00271785,.0000253,0.0184,43.3906,65.4801,317.6743,0,U,39222,999,4635,0,.78E-6,0
ES'HAIL 1,2013-044A,2026-07-16T19:37:38.580960,1.00268858,.0002221,0.0486,350.2972,116.7642,147.4976,0,U,39233,999,4692,0,.133E-5,0
GSAT-7,2013-044B,2026-07-16T20:30:56.306304,1.00271535,.0003153,0.1553,89.5042,176.1906,50.6693,0,U,39234,999,4555,0,-.87E-6,0
AMOS-4,2013-045A,2026-07-16T20:28:26.544000,1.00270960,.0002132,0.0220,250.5468,194.9994,221.2373,0,U,39237,999,4725,0,-.3E-7,0
AEHF-3 (USA 246),2013-050A,2026-07-16T14:18:59.499072,1.00271390,.0088523,5.3638,66.9127,187.6931,130.2889,0,U,39256,999,4594,0,.16E-6,0
ASTRA 2E,2013-056A,2026-07-16T19:37:38.580960,1.00269758,.0002644,0.0739,315.4916,154.6108,147.4182,0,U,39285,999,4671,0,.14E-5,0
